CCSDS_OMM_VERS = 2.0
CREATION_DATE  = 
ORIGINATOR     = 

OBJECT_NAME    = ELECTRON KICK STAGE R/B
OBJECT_ID      = 2026-056C
CENTER_NAME    = EARTH
REF_FRAME      = TEME
TIME_SYSTEM    = UTC
MEAN_ELEMENT_THEORY = SGP/SGP4

EPOCH          = 2026-03-26T19:46:01.422048
MEAN_MOTION    = 15.39207602
ECCENTRICITY   = .01587925
INCLINATION    = 50.2914
RA_OF_ASC_NODE = 17.2118
ARG_OF_PERICENTER = 35.1936
MEAN_ANOMALY   = 325.9394

EPHEMERIS_TYPE = 0
CLASSIFICATION_TYPE = U
NORAD_CAT_ID   = 68293
ELEMENT_SET_NO = 999
REV_AT_EPOCH   = 94
BSTAR          = .14970199E-2
MEAN_MOTION_DOT = .93169E-3
MEAN_MOTION_DDOT = 0

CCSDS_OMM_VERS = 2.0
CREATION_DATE  = 
ORIGINATOR     = 

OBJECT_NAME    = STARLINK-37107
OBJECT_ID      = 2026-057A
CENTER_NAME    = EARTH
REF_FRAME      = TEME
TIME_SYSTEM    = UTC
MEAN_ELEMENT_THEORY = SGP/SGP4

EPOCH          = 2026-03-26T22:00:01.999584
MEAN_MOTION    = 16.05153979
ECCENTRICITY   = .00011198
INCLINATION    = 97.2829
RA_OF_ASC_NODE = 208.8530
ARG_OF_PERICENTER = 68.6801
MEAN_ANOMALY   = 252.9564

EPHEMERIS_TYPE = 0
CLASSIFICATION_TYPE = U
NORAD_CAT_ID   = 68294
ELEMENT_SET_NO = 999
REV_AT_EPOCH   = 192
BSTAR          = -.14703905E-2
MEAN_MOTION_DOT = -.1003878E-1
MEAN_MOTION_DDOT = .350599E-3

CCSDS_OMM_VERS = 2.0
CREATION_DATE  = 
ORIGINATOR     = 

OBJECT_NAME    = STARLINK-37147
OBJECT_ID      = 2026-057B
CENTER_NAME    = EARTH
REF_FRAME      = TEME
TIME_SYSTEM    = UTC
MEAN_ELEMENT_THEORY = SGP/SGP4

EPOCH          = 2026-03-26T22:00:01.999584
MEAN_MOTION    = 16.05244058
ECCENTRICITY   = .00011656
INCLINATION    = 97.2826
RA_OF_ASC_NODE = 208.8536
ARG_OF_PERICENTER = 68.9373
MEAN_ANOMALY   = 254.3282

EPHEMERIS_TYPE = 0
CLASSIFICATION_TYPE = U
NORAD_CAT_ID   = 68295
ELEMENT_SET_NO = 999
REV_AT_EPOCH   = 191
BSTAR          = -.14528071E-2
MEAN_MOTION_DOT = -.997359E-2
MEAN_MOTION_DDOT = .34677661E-3

CCSDS_OMM_VERS = 2.0
CREATION_DATE  = 
ORIGINATOR     = 

OBJECT_NAME    = STARLINK-37142
OBJECT_ID      = 2026-057C
CENTER_NAME    = EARTH
REF_FRAME      = TEME
TIME_SYSTEM    = UTC
MEAN_ELEMENT_THEORY = SGP/SGP4

EPOCH          = 2026-03-26T22:00:01.999584
MEAN_MOTION    = 16.05602154
ECCENTRICITY   = .00010775
INCLINATION    = 97.2824
RA_OF_ASC_NODE = 208.8557
ARG_OF_PERICENTER = 68.3304
MEAN_ANOMALY   = 260.0008

EPHEMERIS_TYPE = 0
CLASSIFICATION_TYPE = U
NORAD_CAT_ID   = 68296
ELEMENT_SET_NO = 999
REV_AT_EPOCH   = 180
BSTAR          = -.14266476E-2
MEAN_MOTION_DOT = -.1000879E-1
MEAN_MOTION_DDOT = .35056753E-3

CCSDS_OMM_VERS = 2.0
CREATION_DATE  = 
ORIGINATOR     = 

OBJECT_NAME    = STARLINK-37115
OBJECT_ID      = 2026-057D
CENTER_NAME    = EARTH
REF_FRAME      = TEME
TIME_SYSTEM    = UTC
MEAN_ELEMENT_THEORY = SGP/SGP4

EPOCH          = 2026-03-26T22:00:01.999584
MEAN_MOTION    = 16.05497249
ECCENTRICITY   = .00011025
INCLINATION    = 97.2822
RA_OF_ASC_NODE = 208.8544
ARG_OF_PERICENTER = 68.0743
MEAN_ANOMALY   = 258.7129

EPHEMERIS_TYPE = 0
CLASSIFICATION_TYPE = U
NORAD_CAT_ID   = 68297
ELEMENT_SET_NO = 999
REV_AT_EPOCH   = 180
BSTAR          = -.14296334E-2
MEAN_MOTION_DOT = -.996637E-2
MEAN_MOTION_DDOT = .34737934E-3

CCSDS_OMM_VERS = 2.0
CREATION_DATE  = 
ORIGINATOR     = 

OBJECT_NAME    = STARLINK-36355
OBJECT_ID      = 2026-057E
CENTER_NAME    = EARTH
REF_FRAME      = TEME
TIME_SYSTEM    = UTC
MEAN_ELEMENT_THEORY = SGP/SGP4

EPOCH          = 2026-03-26T22:00:01.999584
MEAN_MOTION    = 16.05359152
ECCENTRICITY   = .00010558
INCLINATION    = 97.2824
RA_OF_ASC_NODE = 208.8539
ARG_OF_PERICENTER = 69.5366
MEAN_ANOMALY   = 255.2936

EPHEMERIS_TYPE = 0
CLASSIFICATION_TYPE = U
NORAD_CAT_ID   = 68298
ELEMENT_SET_NO = 999
REV_AT_EPOCH   = 207
BSTAR          = -.14507925E-2
MEAN_MOTION_DOT = -.1002882E-1
MEAN_MOTION_DDOT = .35082723E-3

CCSDS_OMM_VERS = 2.0
CREATION_DATE  = 
ORIGINATOR     = 

OBJECT_NAME    = STARLINK-37118
OBJECT_ID      = 2026-057F
CENTER_NAME    = EARTH
REF_FRAME      = TEME
TIME_SYSTEM    = UTC
MEAN_ELEMENT_THEORY = SGP/SGP4

EPOCH          = 2026-03-26T22:00:01.999584
MEAN_MOTION    = 16.05852162
ECCENTRICITY   = .00010774
INCLINATION    = 97.2822
RA_OF_ASC_NODE = 208.8570
ARG_OF_PERICENTER = 64.3317
MEAN_ANOMALY   = 267.5309

EPHEMERIS_TYPE = 0
CLASSIFICATION_TYPE = U
NORAD_CAT_ID   = 68299
ELEMENT_SET_NO = 999
REV_AT_EPOCH   = 192
BSTAR          = -.1396203E-2
MEAN_MOTION_DOT = -.994617E-2
MEAN_MOTION_DDOT = .34758178E-3

CCSDS_OMM_VERS = 2.0
CREATION_DATE  = 
ORIGINATOR     = 

OBJECT_NAME    = STARLINK-36875
OBJECT_ID      = 2026-057G
CENTER_NAME    = EARTH
REF_FRAME      = TEME
TIME_SYSTEM    = UTC
MEAN_ELEMENT_THEORY = SGP/SGP4

EPOCH          = 2026-03-26T22:00:01.999584
MEAN_MOTION    = 16.05748282
ECCENTRICITY   = .00010961
INCLINATION    = 97.2824
RA_OF_ASC_NODE = 208.8562
ARG_OF_PERICENTER = 64.4600
MEAN_ANOMALY   = 265.8943

EPHEMERIS_TYPE = 0
CLASSIFICATION_TYPE = U
NORAD_CAT_ID   = 68300
ELEMENT_SET_NO = 999
REV_AT_EPOCH   = 198
BSTAR          = -.14087677E-2
MEAN_MOTION_DOT = -.997207E-2
MEAN_MOTION_DDOT = .34881439E-3

CCSDS_OMM_VERS = 2.0
CREATION_DATE  = 
ORIGINATOR     = 

OBJECT_NAME    = STARLINK-37099
OBJECT_ID      = 2026-057H
CENTER_NAME    = EARTH
REF_FRAME      = TEME
TIME_SYSTEM    = UTC
MEAN_ELEMENT_THEORY = SGP/SGP4

EPOCH          = 2026-03-26T22:00:01.999584
MEAN_MOTION    = 16.06008919
ECCENTRICITY   = .00011253
INCLINATION    = 97.2821
RA_OF_ASC_NODE = 208.8582
ARG_OF_PERICENTER = 62.8829
MEAN_ANOMALY   = 271.1120

EPHEMERIS_TYPE = 0
CLASSIFICATION_TYPE = U
NORAD_CAT_ID   = 68301
ELEMENT_SET_NO = 999
REV_AT_EPOCH   = 180
BSTAR          = -.13802752E-2
MEAN_MOTION_DOT = -.992762E-2
MEAN_MOTION_DDOT = .34704954E-3

CCSDS_OMM_VERS = 2.0
CREATION_DATE  = 
ORIGINATOR     = 

OBJECT_NAME    = STARLINK-37007
OBJECT_ID      = 2026-057J
CENTER_NAME    = EARTH
REF_FRAME      = TEME
TIME_SYSTEM    = UTC
MEAN_ELEMENT_THEORY = SGP/SGP4

EPOCH          = 2026-03-26T22:00:01.999584
MEAN_MOTION    = 16.06315146
ECCENTRICITY   = .0001015
INCLINATION    = 97.2818
RA_OF_ASC_NODE = 208.8598
ARG_OF_PERICENTER = 69.2576
MEAN_ANOMALY   = 268.9315

EPHEMERIS_TYPE = 0
CLASSIFICATION_TYPE = U
NORAD_CAT_ID   = 68302
ELEMENT_SET_NO = 999
REV_AT_EPOCH   = 203
BSTAR          = -.13512769E-2
MEAN_MOTION_DOT = -.990333E-2
MEAN_MOTION_DDOT = .34678299E-3

CCSDS_OMM_VERS = 2.0
CREATION_DATE  = 
ORIGINATOR     = 

OBJECT_NAME    = STARLINK-36300
OBJECT_ID      = 2026-057K
CENTER_NAME    = EARTH
REF_FRAME      = TEME
TIME_SYSTEM    = UTC
MEAN_ELEMENT_THEORY = SGP/SGP4

EPOCH          = 2026-03-26T22:00:01.999584
MEAN_MOTION    = 16.06174149
ECCENTRICITY   = .00009856
INCLINATION    = 97.2818
RA_OF_ASC_NODE = 208.8589
ARG_OF_PERICENTER = 71.2520
MEAN_ANOMALY   = 265.0117

EPHEMERIS_TYPE = 0
CLASSIFICATION_TYPE = U
NORAD_CAT_ID   = 68303
ELEMENT_SET_NO = 999
REV_AT_EPOCH   = 207
BSTAR          = -.13643864E-2
MEAN_MOTION_DOT = -.99131E-2
MEAN_MOTION_DDOT = .34681232E-3

CCSDS_OMM_VERS = 2.0
CREATION_DATE  = 
ORIGINATOR     = 

OBJECT_NAME    = STARLINK-36849
OBJECT_ID      = 2026-057L
CENTER_NAME    = EARTH
REF_FRAME      = TEME
TIME_SYSTEM    = UTC
MEAN_ELEMENT_THEORY = SGP/SGP4

EPOCH          = 2026-03-26T22:00:01.999584
MEAN_MOTION    = 16.06426537
ECCENTRICITY   = .00010588
INCLINATION    = 97.2818
RA_OF_ASC_NODE = 208.8605
ARG_OF_PERICENTER = 64.6819
MEAN_ANOMALY   = 274.9888

EPHEMERIS_TYPE = 0
CLASSIFICATION_TYPE = U
NORAD_CAT_ID   = 68304
ELEMENT_SET_NO = 999
REV_AT_EPOCH   = 198
BSTAR          = -.13456945E-2
MEAN_MOTION_DOT = -.993004E-2
MEAN_MOTION_DDOT = .34899557E-3

CCSDS_OMM_VERS = 2.0
CREATION_DATE  = 
ORIGINATOR     = 

OBJECT_NAME    = STARLINK-36277
OBJECT_ID      = 2026-057M
CENTER_NAME    = EARTH
REF_FRAME      = TEME
TIME_SYSTEM    = UTC
MEAN_ELEMENT_THEORY = SGP/SGP4

EPOCH          = 2026-03-26T22:00:01.999584
MEAN_MOTION    = 16.06686002
ECCENTRICITY   = .00010849
INCLINATION    = 97.2815
RA_OF_ASC_NODE = 208.8616
ARG_OF_PERICENTER = 67.1802
MEAN_ANOMALY   = 275.9988

EPHEMERIS_TYPE = 0
CLASSIFICATION_TYPE = U
NORAD_CAT_ID   = 68305
ELEMENT_SET_NO = 999
REV_AT_EPOCH   = 213
BSTAR          = -.13239307E-2
MEAN_MOTION_DOT = -.992705E-2
MEAN_MOTION_DDOT = .3499228E-3

CCSDS_OMM_VERS = 2.0
CREATION_DATE  = 
ORIGINATOR     = 

OBJECT_NAME    = STARLINK-36307
OBJECT_ID      = 2026-057N
CENTER_NAME    = EARTH
REF_FRAME      = TEME
TIME_SYSTEM    = UTC
MEAN_ELEMENT_THEORY = SGP/SGP4

EPOCH          = 2026-03-26T22:00:01.999584
MEAN_MOTION    = 16.06527071
ECCENTRICITY   = .00009833
INCLINATION    = 97.2818
RA_OF_ASC_NODE = 208.8612
ARG_OF_PERICENTER = 73.5129
MEAN_ANOMALY   = 267.6242

EPHEMERIS_TYPE = 0
CLASSIFICATION_TYPE = U
NORAD_CAT_ID   = 68306
ELEMENT_SET_NO = 999
REV_AT_EPOCH   = 207
BSTAR          = -.13333577E-2
MEAN_MOTION_DOT = -.990027E-2
MEAN_MOTION_DDOT = .34749218E-3

CCSDS_OMM_VERS = 2.0
CREATION_DATE  = 
ORIGINATOR     = 

OBJECT_NAME    = STARLINK-36264
OBJECT_ID      = 2026-057P
CENTER_NAME    = EARTH
REF_FRAME      = TEME
TIME_SYSTEM    = UTC
MEAN_ELEMENT_THEORY = SGP/SGP4

EPOCH          = 2026-03-26T22:00:01.999584
MEAN_MOTION    = 16.06846273
ECCENTRICITY   = .00010866
INCLINATION    = 97.2817
RA_OF_ASC_NODE = 208.8629
ARG_OF_PERICENTER = 61.2529
MEAN_ANOMALY   = 284.1262

EPHEMERIS_TYPE = 0
CLASSIFICATION_TYPE = U
NORAD_CAT_ID   = 68307
ELEMENT_SET_NO = 999
REV_AT_EPOCH   = 213
BSTAR          = -.1299977E-2
MEAN_MOTION_DOT = -.984527E-2
MEAN_MOTION_DDOT = .34529657E-3

